{
  "type": "FeatureCollection",
  "features": [
    {
      "type": "Feature",
      "properties": {
        "id": "tulusbesar",
        "nama_desa": "Tulusbesar",
        "kecamatan": "Tumpang",
        "kabupaten": "Malang",
        "provinsi": "Jawa Timur",
        "deskripsi": "Batas wilayah poligon Desa Tulusbesar"
      },
      "geometry": {
        "type": "Polygon",
        "coordinates": [
          [
            [112.75550, -8.00700],
            [112.75820, -8.00450],
            [112.76210, -8.00520],
            [112.76850, -8.00680],
            [112.77530, -8.00750],
            [112.78200, -8.00800],
            [112.78350, -8.01050],
            [112.78500, -8.01500],
            [112.78120, -8.01950],
            [112.77650, -8.02300],
            [112.77300, -8.02600],
            [112.76800, -8.02550],
            [112.76250, -8.02450],
            [112.75800, -8.02400],
            [112.75620, -8.02100],
            [112.75450, -8.01850],
            [112.75300, -8.01500],
            [112.75350, -8.01150],
            [112.75550, -8.00700]
          ]
        ]
      }
    }
  ]
}